[
    {
        "Altitude(m)": 605470.754930125,
        "Argument of Periapsis(deg)": 0.0,
        "Eccentricity": 0.0,
        "Inclination(deg)": 60.0,
        "Latitude(deg)": 27.988092283590124,
        "Longitude(deg)": -152.7370067861681,
        "Mean Anomaly(deg)": 147.27269999999996,
        "RAAN(deg)": 145.0,
        "Satellite Name": "Test1 647",
        "Satellite Number": 647,
        "Semi-Major Axis(m)": 6980739.136638005,
        "Time(s)": 0
    },
    {
        "Altitude(m)": 605395.7930812485,
        "Argument of Periapsis(deg)": 0.00010418945913296404,
        "Eccentricity": 0.0,
        "Inclination(deg)": 60.0,
        "Latitude(deg)": 27.473782431299377,
        "Longitude(deg)": -152.38382036552517,
        "Mean Anomaly(deg)": 147.8928061454618,
        "RAAN(deg)": 144.99957995086027,
        "Satellite Name": "Test1 647",
        "Satellite Number": 647,
        "Semi-Major Axis(m)": 6980739.136638005,
        "Time(s)": 10
    }
]